ONEWEB-0055             
1 45443U 20020V   24033.51642335  .00000389  00000+0  10627-2 0  9992
2 45443  87.8983 193.1348 0001604  93.3411 266.7900 13.11414534189157
ONEWEB-0093             
1 45444U 20020W   24033.48964560  .00000206  00000+0  54522-3 0  9997
2 45444  87.8987 193.1189 0001832  96.0189 264.1148 13.11417372189216
ONEWEB-0029             
1 45445U 20020X   24033.43282742  .00000575  00000+0  15879-2 0  9998
2 45445  87.8984 193.1439 0001662 105.9134 254.2178 13.11414979189182
ONEWEB-0068             
1 45446U 20020Y   24033.48396004 -.00000072  00000+0 -23985-3 0  9993
2 45446  87.8984 193.1184 0001764  99.9691 260.1636 13.11419719189130
ONEWEB-0046             
1 45447U 20020Z   24033.48151943 -.00000097  00000+0 -30922-3 0  9991
2 45447  87.8986 193.1314 0001446 112.0830 248.0452 13.11417124189147
ONEWEB-0063             
1 45448U 20020AA  24033.51075215  .00000520  00000+0  14307-2 0  9990
2 45448  87.8984 193.1281 0001203 108.3635 251.7624 13.11413799189237
ONEWEB-0019             
1 45449U 20020AB  24033.48477892 -.00000012  00000+0 -68678-4 0  9994
2 45449  87.8989 193.1304 0001420  93.3979 266.7312 13.11419248189071
ONEWEB-0094             
1 45450U 20020AC  24033.40546571  .00000052  00000+0  99840-4 0  9996
2 45450  87.9241 178.0244 0001527  98.0840 262.0465 13.17651677192293
ONEWEB-0087             
1 45451U 20020AD  24033.51724078  .00000343  00000+0  93292-3 0  9996
2 45451  87.8977 193.1058 0001706 107.0054 253.1261 13.11414702189120
ONEWEB-0082             
1 45452U 20020AE  24033.51887142  .00000110  00000+0  27593-3 0  9992
2 45452  87.8983 193.1029 0001537  92.8454 267.2850 13.11415510189211
ONEWEB-0050             
1 45453U 20020AF  24033.56901687  .00003521  00000+0  27290-3 0  9992
2 45453  87.9976  62.5127 0022834 186.3959 173.6988 15.00924708211431
ONEWEB-0034             
1 45454U 20020AG  24033.46208309 -.00005732  00000+0 -16231-1 0  9992
2 45454  87.8992 193.1340 0001476 121.1681 238.9592 13.11371045189121
ONEWEB-0060             
1 45455U 20020AH  24033.47015022 -.00000498  00000+0 -14405-2 0  9998
2 45455  87.8979 193.1251 0001726 107.7407 252.3909 13.11416003189083
ONEWEB-0086             
1 45456U 20020AJ  24033.48801747  .00000115  00000+0  28831-3 0  9990
2 45456  87.8980 193.1283 0001999 107.3497 252.7850 13.11416885189142
ONEWEB-0088             
1 45457U 20020AK  24033.46527879 -.00000479  00000+0 -13862-2 0  9992
2 45457  87.8972 193.1037 0001843 107.9475 252.1854 13.11415289189078
ONEWEB-0102             
1 47258U 20100A   24033.38648657 -.00000374  00000+0 -10745-2 0  9992
2 47258  87.9025 162.9480 0001486  96.9724 263.1574 13.12444256151169
ONEWEB-0109             
1 47259U 20100B   24033.39440666 -.00000244  00000+0 -71442-3 0  9992
2 47259  87.9039 162.9111 0001528  99.1318 260.9983 13.12442713150992
ONEWEB-0110             
1 47260U 20100C   24033.41823569  .00000387  00000+0  10402-2 0  9998
2 47260  87.9037 162.9208 0001915 103.3339 256.8003 13.12441284151169
ONEWEB-0111             
1 47261U 20100D   24033.37534591 -.00000234  00000+0 -68550-3 0  9999
2 47261  87.9032 162.9167 0001481  92.4656 267.6642 13.12441143150990
ONEWEB-0114             
1 47262U 20100E   24033.40553155  .00000155  00000+0  39634-3 0  9992
2 47262  87.9035 162.9337 0001188  87.6468 272.4796 13.12442873150955
ONEWEB-0117             
1 47263U 20100F   24033.39758691  .00000211  00000+0  55208-3 0  9991
2 47263  87.9035 162.9031 0001768 106.0793 254.0530 13.12442564150968
ONEWEB-0118             
1 47264U 20100G   24033.35311438  .00000374  00000+0  10031-2 0  9996
2 47264  87.9029 162.9156 0001203 110.9922 249.1335 13.12441728151153
ONEWEB-0119             
1 47265U 20100H   24033.38169968 -.00000361  00000+0 -10382-2 0  9996
2 47265  87.9035 162.9501 0001684 101.3687 258.7630 13.12441239151139
ONEWEB-0120             
1 47266U 20100J   24033.41057398  .00032382  00000+0  89261-1 0  9991
2 47266  87.9043 162.9355 0002154 353.6274   6.4827 13.12749311151164
ONEWEB-0121             
1 47267U 20100K   24033.39281623 -.00000271  00000+0 -78938-3 0  9994
2 47267  87.9031 162.9329 0002030 106.9872 253.1479 13.12441788151070
ONEWEB-0122             
1 47268U 20100L   24033.38791832 -.00000259  00000+0 -75653-3 0  9999
2 47268  87.9033 162.9391 0001535  99.2202 260.9101 13.12443344150989
ONEWEB-0123             
1 47269U 20100M   24033.38328745 -.00000359  00000+0 -10337-2 0  9997
2 47269  87.9035 162.9486 0001585 103.2562 256.8744 13.12441813151120
ONEWEB-0124             
1 47270U 20100N   24033.37217648 -.00000123  00000+0 -37851-3 0  9997
2 47270  87.9042 162.9474 0001906 103.8915 256.2426 13.12442293151003
ONEWEB-0125             
1 47271U 20100P   24033.42300170  .00000396  00000+0  10649-2 0  9992
2 47271  87.9052 162.8964 0001543 118.6047 241.5237 13.12440816151078
ONEWEB-0126             
1 47272U 20100Q   24033.37455142 -.00000265  00000+0 -77117-3 0  9998
2 47272  87.9038 162.9161 0001473  99.2175 260.9120 13.12444213151139
ONEWEB-0127             
1 47273U 20100R   24033.41188532  .00000343  00000+0  91877-3 0  9994
2 47273  87.9039 162.9323 0001716 104.5552 255.5766 13.12442559151160
ONEWEB-0128             
1 47274U 20100S   24033.43411558  .00000287  00000+0  76235-3 0  9992
2 47274  87.9047 162.9233 0001882  97.1455 262.9887 13.12440586151189
ONEWEB-0129             
1 47275U 20100T   24033.41348114  .00000692  00000+0  18888-2 0  9997
2 47275  87.9058 162.9059 0001087  52.4350 307.6877 13.12441815151118
ONEWEB-0130             
1 47276U 20100U   24033.36582174  .00000012  00000+0 -24822-5 0  9993
2 47276  87.9040 162.9221 0001604  95.1152 265.0159 13.12440940151073
ONEWEB-0131             
1 47277U 20100V   24033.36264676  .00000183  00000+0  47316-3 0  9997
2 47277  87.9042 162.9337 0001700 101.7408 258.3911 13.12441384151118
ONEWEB-0132             
1 47278U 20100W   24033.39122079 -.00000299  00000+0 -86678-3 0  9995
2 47278  87.9035 162.9291 0001914 111.0859 249.0474 13.12441987151010
ONEWEB-0133             
1 47279U 20100X   24033.40711734  .00000234  00000+0  61382-3 0  9992
2 47279  87.9036 162.9333 0001765 103.8530 256.2795 13.12442612151177
ONEWEB-0134             
1 47280U 20100Y   24033.37693961 -.00000274  00000+0 -79835-3 0  9999
2 47280  87.9029 162.9276 0001681  91.4825 268.6496 13.12441738151143
ONEWEB-0135             
1 47281U 20100Z   24033.42141497  .00000428  00000+0  11539-2 0  9993
2 47281  87.9042 162.9278 0001770 102.6166 257.5160 13.12441596151173
ONEWEB-0136             
1 47282U 20100AA  24033.36740543 -.00000006  00000+0 -52945-4 0  9996
2 47282  87.9040 162.9068 0001738  84.5930 275.5397 13.12440969151096
ONEWEB-0137             
1 47283U 20100AB  24033.40076410 -.00000086  00000+0 -27524-3 0  9999
2 47283  87.9031 162.9305 0001363 101.7777 258.3505 13.12442632151006
ONEWEB-0138             
1 47284U 20100AC  24033.38011047 -.00000325  00000+0 -93872-3 0  9997
2 47284  87.9021 162.9453 0001668 106.5814 253.5498 13.12441495151085
ONEWEB-0139             
1 47285U 20100AD  24033.42776879  .00000394  00000+0  10585-2 0  9997
2 47285  87.9042 162.9043 0001635 101.5509 258.5803 13.12441558151168
ONEWEB-0140             
1 47286U 20100AE  24033.37375899 -.00000212  00000+0 -62494-3 0  9997
2 47286  87.9035 162.9239 0001606  97.2071 262.9240 13.12441122151128
ONEWEB-0141             
1 47287U 20100AF  24033.39360707 -.00000221  00000+0 -64888-3 0  9991
2 47287  87.9038 162.9179 0001511 112.1023 248.0266 13.12442466151118
ONEWEB-0142             
1 47288U 20100AG  24033.38725542 -.00000332  00000+0 -95955-3 0  9995
2 47288  87.9036 162.9117 0001385 101.2026 258.9258 13.12442983151104
ONEWEB-0143             
1 47289U 20100AH  24033.41665039  .00000424  00000+0  11439-2 0  9998
2 47289  87.9039 162.9258 0001741 108.1155 252.0164 13.12441956151086
ONEWEB-0144             
1 47290U 20100AJ  24033.38964237 -.00000253  00000+0 -73944-3 0  9990
2 47290  87.9038 162.9147 0001331  90.8406 269.2875 13.12443861151003
ONEWEB-0145             
1 47291U 20100AK  24033.36105463  .00000125  00000+0  31250-3 0  9997
2 47291  87.9045 162.9441 0001399  95.3241 264.8047 13.12441075151197
ONEWEB-0146             
1 47292U 20100AL  24033.43252762  .00000372  00000+0  99763-3 0  9998
2 47292  87.9029 162.9101 0003656 124.6590 235.4883 13.12441042151112
ONEWEB-0147             
1 47293U 20100AM  24033.39917391 -.00000019  00000+0 -88502-4 0  9990
2 47293  87.9027 162.9162 0001811  94.4525 265.6811 13.12442584151007
ONEWEB-0115             
1 48042U 21025A   24033.26468106  .00000289  00000+0  75630-3 0  9995
2 48042  87.9017 132.6093 0001803 105.2574 254.8755 13.13469939139920
ONEWEB-0152             
1 48043U 21025B   24033.27737403  .00000106  00000+0  25424-3 0  9990
2 48043  87.9013 132.5977 0001840 104.2991 255.8342 13.13468490139889
ONEWEB-0153             
1 48044U 21025C   24033.33133530  .00000372  00000+0  98490-3 0  9997
2 48044  87.9034 132.5760 0001831 105.8357 254.2974 13.13470111139883
ONEWEB-0154             
1 48045U 21025D   24033.32816425  .00000270  00000+0  70517-3 0  9995
2 48045  87.9005 132.5869 0001927 107.3092 252.8248 13.13470019139842
ONEWEB-0116             
1 48046U 21025E   24033.29324060 -.00000193  00000+0 -56216-3 0  9997
2 48046  87.9011 132.5588 0001924 107.6788 252.4551 13.13468341139983
ONEWEB-0150             
1 48047U 21025F   24033.34403045  .00000310  00000+0  81403-3 0  9990
2 48047  87.9006 132.5763 0001598 108.9581 251.1721 13.13468422139889
ONEWEB-0107             
1 48048U 21025G   24033.34562343  .00000284  00000+0  74255-3 0  9995
2 48048  87.9013 132.5750 0001439 107.9309 252.1977 13.13468128139860
ONEWEB-0101             
1 48049U 21025H   24033.30911502 -.00000156  00000+0 -46318-3 0  9996
2 48049  87.9014 132.5893 0001801 101.5105 258.6227 13.13468564139837
